[{"OBJECT_NAME":"ONEWEB-0018","OBJECT_ID":"2020-020L","EPOCH":"2026-03-30T20:40:01.321824","MEAN_MOTION":13.1141634,"ECCENTRICITY":0.0002125,"INCLINATION":87.8902,"RA_OF_ASC_NODE":36.6358,"ARG_OF_PERICENTER":89.2806,"MEAN_ANOMALY":270.8566,"EPHEMERIS_TYPE":0,"CLASSIFICATION_TYPE":"U","NORAD_CAT_ID":45434,"ELEMENT_SET_NO":999,"REV_AT_EPOCH":29236,"BSTAR":-0.00072207,"MEAN_MOTION_DOT":-2.43e-06,"MEAN_MOTION_DDOT":0.0},{"OBJECT_NAME":"ONEWEB-0083","OBJECT_ID":"2020-020M","EPOCH":"2026-03-30T20:26:36.842784","MEAN_MOTION":13.11415089,"ECCENTRICITY":0.0001926,"INCLINATION":87.8908,"RA_OF_ASC_NODE":36.6264,"ARG_OF_PERICENTER":79.672,"MEAN_ANOMALY":280.4626,"EPHEMERIS_TYPE":0,"CLASSIFICATION_TYPE":"U","NORAD_CAT_ID":45435,"ELEMENT_SET_NO":999,"REV_AT_EPOCH":29240,"BSTAR":0.00046557,"MEAN_MOTION_DOT":1.78e-06,"MEAN_MOTION_DDOT":0.0},{"OBJECT_NAME":"ONEWEB-0095","OBJECT_ID":"2020-020N","EPOCH":"2026-03-30T22:03:14.136768","MEAN_MOTION":13.11415381,"ECCENTRICITY":0.0001563,"INCLINATION":87.8905,"RA_OF_ASC_NODE":36.6209,"ARG_OF_PERICENTER":55.4833,"MEAN_ANOMALY":304.6443,"EPHEMERIS_TYPE":0,"CLASSIFICATION_TYPE":"U","NORAD_CAT_ID":45436,"ELEMENT_SET_NO":999,"REV_AT_EPOCH":29241,"BSTAR":0.0014658,"MEAN_MOTION_DOT":5.32e-06,"MEAN_MOTION_DDOT":0.0},{"OBJECT_NAME":"ONEWEB-0092","OBJECT_ID":"2020-020P","EPOCH":"2026-03-30T21:22:44.948064","MEAN_MOTION":13.11419264,"ECCENTRICITY":0.0001532,"INCLINATION":87.891,"RA_OF_ASC_NODE":36.6265,"ARG_OF_PERICENTER":74.6312,"MEAN_ANOMALY":285.4986,"EPHEMERIS_TYPE":0,"CLASSIFICATION_TYPE":"U","NORAD_CAT_ID":45437,"ELEMENT_SET_NO":999,"REV_AT_EPOCH":29252,"BSTAR":-0.0006969400000000001,"MEAN_MOTION_DOT":-2.34e-06,"MEAN_MOTION_DDOT":0.0},{"OBJECT_NAME":"ONEWEB-0085","OBJECT_ID":"2020-020Q","EPOCH":"2026-03-30T20:25:22.721952","MEAN_MOTION":13.11415745,"ECCENTRICITY":0.000181,"INCLINATION":87.8905,"RA_OF_ASC_NODE":36.6382,"ARG_OF_PERICENTER":80.0036,"MEAN_ANOMALY":280.1296,"EPHEMERIS_TYPE":0,"CLASSIFICATION_TYPE":"U","NORAD_CAT_ID":45438,"ELEMENT_SET_NO":999,"REV_AT_EPOCH":29240,"BSTAR":0.00048814,"MEAN_MOTION_DOT":1.86e-06,"MEAN_MOTION_DDOT":0.0},{"OBJECT_NAME":"ONEWEB-0096","OBJECT_ID":"2020-020R","EPOCH":"2026-03-30T20:27:49.794624","MEAN_MOTION":13.11415121,"ECCENTRICITY":0.0001811,"INCLINATION":87.8908,"RA_OF_ASC_NODE":36.6271,"ARG_OF_PERICENTER":82.1552,"MEAN_ANOMALY":277.9782,"EPHEMERIS_TYPE":0,"CLASSIFICATION_TYPE":"U","NORAD_CAT_ID":45439,"ELEMENT_SET_NO":999,"REV_AT_EPOCH":29239,"BSTAR":0.00034417,"MEAN_MOTION_DOT":1.35e-06,"MEAN_MOTION_DDOT":0.0},{"OBJECT_NAME":"ONEWEB-0037","OBJECT_ID":"2020-020S","EPOCH":"2026-03-30T21:49:36.735744","MEAN_MOTION":13.11418937,"ECCENTRICITY":0.0001781,"INCLINATION":87.8918,"RA_OF_ASC_NODE":36.5931,"ARG_OF_PERICENTER":77.6224,"MEAN_ANOMALY":282.5103,"EPHEMERIS_TYPE":0,"CLASSIFICATION_TYPE":"U","NORAD_CAT_ID":45440,"ELEMENT_SET_NO":999,"REV_AT_EPOCH":29243,"BSTAR":0.0012898000000000002,"MEAN_MOTION_DOT":4.7e-06,"MEAN_MOTION_DDOT":0.0},{"OBJECT_NAME":"ONEWEB-0042","OBJECT_ID":"2020-020T","EPOCH":"2026-03-30T22:02:50.505504","MEAN_MOTION":13.11417043,"ECCENTRICITY":0.0001767,"INCLINATION":87.8907,"RA_OF_ASC_NODE":36.6113,"ARG_OF_PERICENTER":81.691,"MEAN_ANOMALY":278.4419,"EPHEMERIS_TYPE":0,"CLASSIFICATION_TYPE":"U","NORAD_CAT_ID":45441,"ELEMENT_SET_NO":999,"REV_AT_EPOCH":29240,"BSTAR":0.0013274,"MEAN_MOTION_DOT":4.83e-06,"MEAN_MOTION_DDOT":0.0},{"OBJECT_NAME":"ONEWEB-0098","OBJECT_ID":"2020-020U","EPOCH":"2026-03-30T21:56:56.960160","MEAN_MOTION":13.11417512,"ECCENTRICITY":0.0001927,"INCLINATION":87.8905,"RA_OF_ASC_NODE":36.6229,"ARG_OF_PERICENTER":79.0722,"MEAN_ANOMALY":281.0623,"EPHEMERIS_TYPE":0,"CLASSIFICATION_TYPE":"U","NORAD_CAT_ID":45442,"ELEMENT_SET_NO":999,"REV_AT_EPOCH":29238,"BSTAR":0.0015512000000000002,"MEAN_MOTION_DOT":5.63e-06,"MEAN_MOTION_DDOT":0.0},{"OBJECT_NAME":"ONEWEB-0055","OBJECT_ID":"2020-020V","EPOCH":"2026-03-30T19:42:38.628288","MEAN_MOTION":13.11420038,"ECCENTRICITY":0.0001923,"INCLINATION":87.891,"RA_OF_ASC_NODE":36.6417,"ARG_OF_PERICENTER":79.307,"MEAN_ANOMALY":280.8274,"EPHEMERIS_TYPE":0,"CLASSIFICATION_TYPE":"U","NORAD_CAT_ID":45443,"ELEMENT_SET_NO":999,"REV_AT_EPOCH":29234,"BSTAR":0.00028639999999999997,"MEAN_MOTION_DOT":1.14e-06,"MEAN_MOTION_DDOT":0.0},{"OBJECT_NAME":"ONEWEB-0093","OBJECT_ID":"2020-020W","EPOCH":"2026-03-30T20:57:18.895968","MEAN_MOTION":13.1141669,"ECCENTRICITY":0.000164,"INCLINATION":87.8907,"RA_OF_ASC_NODE":36.6212,"ARG_OF_PERICENTER":91.727,"MEAN_ANOMALY":268.4046,"EPHEMERIS_TYPE":0,"CLASSIFICATION_TYPE":"U","NORAD_CAT_ID":45444,"ELEMENT_SET_NO":999,"REV_AT_EPOCH":29241,"BSTAR":-0.0013123000000000002,"MEAN_MOTION_DOT":-4.52e-06,"MEAN_MOTION_DDOT":0.0},{"OBJECT_NAME":"ONEWEB-0029","OBJECT_ID":"2020-020X","EPOCH":"2026-03-30T21:20:17.379456","MEAN_MOTION":13.11420172,"ECCENTRICITY":0.0001858,"INCLINATION":87.8909,"RA_OF_ASC_NODE":36.6293,"ARG_OF_PERICENTER":84.5614,"MEAN_ANOMALY":275.5726,"EPHEMERIS_TYPE":0,"CLASSIFICATION_TYPE":"U","NORAD_CAT_ID":45445,"ELEMENT_SET_NO":999,"REV_AT_EPOCH":29239,"BSTAR":-0.00080232,"MEAN_MOTION_DOT":-2.72e-06,"MEAN_MOTION_DDOT":0.0},{"OBJECT_NAME":"ONEWEB-0068","OBJECT_ID":"2020-020Y","EPOCH":"2026-03-30T20:56:54.727296","MEAN_MOTION":13.11416766,"ECCENTRICITY":0.0001836,"INCLINATION":87.8909,"RA_OF_ASC_NODE":36.6241,"ARG_OF_PERICENTER":86.0329,"MEAN_ANOMALY":274.1008,"EPHEMERIS_TYPE":0,"CLASSIFICATION_TYPE":"U","NORAD_CAT_ID":45446,"ELEMENT_SET_NO":999,"REV_AT_EPOCH":29233,"BSTAR":-0.0014879000000000001,"MEAN_MOTION_DOT":-5.15e-06,"MEAN_MOTION_DDOT":0.0},{"OBJECT_NAME":"ONEWEB-0046","OBJECT_ID":"2020-020Z","EPOCH":"2026-03-30T20:44:53.182752","MEAN_MOTION":13.114184,"ECCENTRICITY":0.0001749,"INCLINATION":87.891,"RA_OF_ASC_NODE":36.6327,"ARG_OF_PERICENTER":81.4252,"MEAN_ANOMALY":278.7074,"EPHEMERIS_TYPE":0,"CLASSIFICATION_TYPE":"U","NORAD_CAT_ID":45447,"ELEMENT_SET_NO":999,"REV_AT_EPOCH":29234,"BSTAR":-0.0030244,"MEAN_MOTION_DOT":-1.059e-05,"MEAN_MOTION_DDOT":0.0},{"OBJECT_NAME":"ONEWEB-0063","OBJECT_ID":"2020-020AA","EPOCH":"2026-03-30T19:36:32.343264","MEAN_MOTION":13.1141954,"ECCENTRICITY":0.0001624,"INCLINATION":87.8912,"RA_OF_ASC_NODE":36.6397,"ARG_OF_PERICENTER":75.8827,"MEAN_ANOMALY":284.2481,"EPHEMERIS_TYPE":0,"CLASSIFICATION_TYPE":"U","NORAD_CAT_ID":45448,"ELEMENT_SET_NO":999,"REV_AT_EPOCH":29242,"BSTAR":-0.00028392,"MEAN_MOTION_DOT":-8.8e-07,"MEAN_MOTION_DDOT":0.0},{"OBJECT_NAME":"ONEWEB-0019","OBJECT_ID":"2020-020AB","EPOCH":"2026-03-30T20:32:30.153984","MEAN_MOTION":13.11415867,"ECCENTRICITY":0.0001999,"INCLINATION":87.89,"RA_OF_ASC_NODE":36.6241,"ARG_OF_PERICENTER":77.8833,"MEAN_ANOMALY":282.2519,"EPHEMERIS_TYPE":0,"CLASSIFICATION_TYPE":"U","NORAD_CAT_ID":45449,"ELEMENT_SET_NO":999,"REV_AT_EPOCH":29227,"BSTAR":0.00018351,"MEAN_MOTION_DOT":7.8e-07,"MEAN_MOTION_DDOT":0.0}]