ONEWEB-0018             
1 45434U 20020L   26089.86112641 -.00000243  00000+0 -72207-3 0  9999
2 45434  87.8902  36.6358 0002125  89.2806 270.8566 13.11416340292360
ONEWEB-0083             
1 45435U 20020M   26089.85181531  .00000178  00000+0  46557-3 0  9997
2 45435  87.8908  36.6264 0001926  79.6720 280.4626 13.11415089292407
ONEWEB-0095             
1 45436U 20020N   26089.91891362  .00000532  00000+0  14658-2 0  9995
2 45436  87.8905  36.6209 0001563  55.4833 304.6443 13.11415381292410
ONEWEB-0092             
1 45437U 20020P   26089.89079801 -.00000234  00000+0 -69694-3 0  9991
2 45437  87.8910  36.6265 0001532  74.6312 285.4986 13.11419264292524
ONEWEB-0085             
1 45438U 20020Q   26089.85095743  .00000186  00000+0  48814-3 0  9996
2 45438  87.8905  36.6382 0001810  80.0036 280.1296 13.11415745292405
ONEWEB-0096             
1 45439U 20020R   26089.85265966  .00000135  00000+0  34417-3 0  9991
2 45439  87.8908  36.6271 0001811  82.1552 277.9782 13.11415121292393
ONEWEB-0037             
1 45440U 20020S   26089.90945296  .00000470  00000+0  12898-2 0  9990
2 45440  87.8918  36.5931 0001781  77.6224 282.5103 13.11418937292431
ONEWEB-0042             
1 45441U 20020T   26089.91864011  .00000483  00000+0  13274-2 0  9990
2 45441  87.8907  36.6113 0001767  81.6910 278.4419 13.11417043292402
ONEWEB-0098             
1 45442U 20020U   26089.91454815  .00000563  00000+0  15512-2 0  9994
2 45442  87.8905  36.6229 0001927  79.0722 281.0623 13.11417512292384
ONEWEB-0055             
1 45443U 20020V   26089.82128042  .00000114  00000+0  28640-3 0  9994
2 45443  87.8910  36.6417 0001923  79.3070 280.8274 13.11420038292347
ONEWEB-0093             
1 45444U 20020W   26089.87313537 -.00000452  00000+0 -13123-2 0  9991
2 45444  87.8907  36.6212 0001640  91.7270 268.4046 13.11416690292419
ONEWEB-0029             
1 45445U 20020X   26089.88909004 -.00000272  00000+0 -80232-3 0  9999
2 45445  87.8909  36.6293 0001858  84.5614 275.5726 13.11420172292395
ONEWEB-0068             
1 45446U 20020Y   26089.87285564 -.00000515  00000+0 -14879-2 0  9990
2 45446  87.8909  36.6241 0001836  86.0329 274.1008 13.11416766292331
ONEWEB-0046             
1 45447U 20020Z   26089.86450443 -.00001059  00000+0 -30244-2 0  9998
2 45447  87.8910  36.6327 0001749  81.4252 278.7074 13.11418400292347
ONEWEB-0063             
1 45448U 20020AA  26089.81704101 -.00000088  00000+0 -28392-3 0  9990
2 45448  87.8912  36.6397 0001624  75.8827 284.2481 13.11419540292423
ONEWEB-0019             
1 45449U 20020AB  26089.85590456  .00000078  00000+0  18351-3 0  9992
2 45449  87.8900  36.6241 0001999  77.8833 282.2519 13.11415867292274
